<?xml version="1.0" encoding="UTF-8"?>
<ndm xmlns:xsi="http://www.w3.org/2001/XMLSchema-instance" xsi:noNamespaceSchemaLocation="https://sanaregistry.org/r/ndmxml_unqualified/ndmxml-2.0.0-master-2.0.xsd">
<omm id="CCSDS_OMM_VERS" version="2.0">
<header><CREATION_DATE/><ORIGINATOR/></header><body><segment><metadata><OBJECT_NAME>ONEWEB-0386</OBJECT_NAME><OBJECT_ID>2021-090AK</OBJECT_ID><CENTER_NAME>EARTH</CENTER_NAME><REF_FRAME>TEME</REF_FRAME><TIME_SYSTEM>UTC</TIME_SYSTEM><MEAN_ELEMENT_THEORY>SGP4</MEAN_ELEMENT_THEORY></metadata><data><meanElements><EPOCH>2024-07-24T12:15:35.238528</EPOCH><MEAN_MOTION>13.20771184</MEAN_MOTION><ECCENTRICITY>.0002107</ECCENTRICITY><INCLINATION>87.9182</INCLINATION><RA_OF_ASC_NODE>52.2416</RA_OF_ASC_NODE><ARG_OF_PERICENTER>85.4957</ARG_OF_PERICENTER><MEAN_ANOMALY>274.6417</MEAN_ANOMALY></meanElements><tleParameters><EPHEMERIS_TYPE>0</EPHEMERIS_TYPE><CLASSIFICATION_TYPE>U</CLASSIFICATION_TYPE><NORAD_CAT_ID>49312</NORAD_CAT_ID><ELEMENT_SET_NO>999</ELEMENT_SET_NO><REV_AT_EPOCH>13838</REV_AT_EPOCH><BSTAR>.52754E-4</BSTAR><MEAN_MOTION_DOT>.34E-6</MEAN_MOTION_DOT><MEAN_MOTION_DDOT>0</MEAN_MOTION_DDOT></tleParameters></data></segment></body></omm>
<omm id="CCSDS_OMM_VERS" version="2.0">
<header><CREATION_DATE/><ORIGINATOR/></header><body><segment><metadata><OBJECT_NAME>ONEWEB-0387</OBJECT_NAME><OBJECT_ID>2021-090AL</OBJECT_ID><CENTER_NAME>EARTH</CENTER_NAME><REF_FRAME>TEME</REF_FRAME><TIME_SYSTEM>UTC</TIME_SYSTEM><MEAN_ELEMENT_THEORY>SGP4</MEAN_ELEMENT_THEORY></metadata><data><meanElements><EPOCH>2024-07-25T02:25:34.976064</EPOCH><MEAN_MOTION>13.20772835</MEAN_MOTION><ECCENTRICITY>.0002008</ECCENTRICITY><INCLINATION>87.9184</INCLINATION><RA_OF_ASC_NODE>52.1893</RA_OF_ASC_NODE><ARG_OF_PERICENTER>95.6885</ARG_OF_PERICENTER><MEAN_ANOMALY>264.4478</MEAN_ANOMALY></meanElements><tleParameters><EPHEMERIS_TYPE>0</EPHEMERIS_TYPE><CLASSIFICATION_TYPE>U</CLASSIFICATION_TYPE><NORAD_CAT_ID>49313</NORAD_CAT_ID><ELEMENT_SET_NO>999</ELEMENT_SET_NO><REV_AT_EPOCH>13977</REV_AT_EPOCH><BSTAR>-.15812E-4</BSTAR><MEAN_MOTION_DOT>.7E-7</MEAN_MOTION_DOT><MEAN_MOTION_DDOT>0</MEAN_MOTION_DDOT></tleParameters></data></segment></body></omm>
<omm id="CCSDS_OMM_VERS" version="2.0">
<header><CREATION_DATE/><ORIGINATOR/></header><body><segment><metadata><OBJECT_NAME>ONEWEB-0388</OBJECT_NAME><OBJECT_ID>2021-090AM</OBJECT_ID><CENTER_NAME>EARTH</CENTER_NAME><REF_FRAME>TEME</REF_FRAME><TIME_SYSTEM>UTC</TIME_SYSTEM><MEAN_ELEMENT_THEORY>SGP4</MEAN_ELEMENT_THEORY></metadata><data><meanElements><EPOCH>2024-07-24T14:15:19.719072</EPOCH><MEAN_MOTION>13.19724485</MEAN_MOTION><ECCENTRICITY>.0001896</ECCENTRICITY><INCLINATION>87.9132</INCLINATION><RA_OF_ASC_NODE>82.7869</RA_OF_ASC_NODE><ARG_OF_PERICENTER>76.2877</ARG_OF_PERICENTER><MEAN_ANOMALY>283.8467</MEAN_ANOMALY></meanElements><tleParameters><EPHEMERIS_TYPE>0</EPHEMERIS_TYPE><CLASSIFICATION_TYPE>U</CLASSIFICATION_TYPE><NORAD_CAT_ID>49314</NORAD_CAT_ID><ELEMENT_SET_NO>999</ELEMENT_SET_NO><REV_AT_EPOCH>13506</REV_AT_EPOCH><BSTAR>-.15091E-3</BSTAR><MEAN_MOTION_DOT>-.47E-6</MEAN_MOTION_DOT><MEAN_MOTION_DDOT>0</MEAN_MOTION_DDOT></tleParameters></data></segment></body></omm>
<omm id="CCSDS_OMM_VERS" version="2.0">
<header><CREATION_DATE/><ORIGINATOR/></header><body><segment><metadata><OBJECT_NAME>ONEWEB-0389</OBJECT_NAME><OBJECT_ID>2021-132A</OBJECT_ID><CENTER_NAME>EARTH</CENTER_NAME><REF_FRAME>TEME</REF_FRAME><TIME_SYSTEM>UTC</TIME_SYSTEM><MEAN_ELEMENT_THEORY>SGP4</MEAN_ELEMENT_THEORY></metadata><data><meanElements><EPOCH>2024-07-24T19:31:18.014016</EPOCH><MEAN_MOTION>13.17647844</MEAN_MOTION><ECCENTRICITY>.0002243</ECCENTRICITY><INCLINATION>87.9190</INCLINATION><RA_OF_ASC_NODE>143.7350</RA_OF_ASC_NODE><ARG_OF_PERICENTER>92.5069</ARG_OF_PERICENTER><MEAN_ANOMALY>267.6319</MEAN_ANOMALY></meanElements><tleParameters><EPHEMERIS_TYPE>0</EPHEMERIS_TYPE><CLASSIFICATION_TYPE>U</CLASSIFICATION_TYPE><NORAD_CAT_ID>50469</NORAD_CAT_ID><ELEMENT_SET_NO>999</ELEMENT_SET_NO><REV_AT_EPOCH>12690</REV_AT_EPOCH><BSTAR>.20386E-3</BSTAR><MEAN_MOTION_DOT>.92E-6</MEAN_MOTION_DOT><MEAN_MOTION_DDOT>0</MEAN_MOTION_DDOT></tleParameters></data></segment></body></omm>
<omm id="CCSDS_OMM_VERS" version="2.0">
<header><CREATION_DATE/><ORIGINATOR/></header><body><segment><metadata><OBJECT_NAME>ONEWEB-0390</OBJECT_NAME><OBJECT_ID>2021-132B</OBJECT_ID><CENTER_NAME>EARTH</CENTER_NAME><REF_FRAME>TEME</REF_FRAME><TIME_SYSTEM>UTC</TIME_SYSTEM><MEAN_ELEMENT_THEORY>SGP4</MEAN_ELEMENT_THEORY></metadata><data><meanElements><EPOCH>2024-07-25T04:40:22.120608</EPOCH><MEAN_MOTION>13.17648200</MEAN_MOTION><ECCENTRICITY>.0001749</ECCENTRICITY><INCLINATION>87.9188</INCLINATION><RA_OF_ASC_NODE>143.6672</RA_OF_ASC_NODE><ARG_OF_PERICENTER>86.9406</ARG_OF_PERICENTER><MEAN_ANOMALY>273.1926</MEAN_ANOMALY></meanElements><tleParameters><EPHEMERIS_TYPE>0</EPHEMERIS_TYPE><CLASSIFICATION_TYPE>U</CLASSIFICATION_TYPE><NORAD_CAT_ID>50470</NORAD_CAT_ID><ELEMENT_SET_NO>999</ELEMENT_SET_NO><REV_AT_EPOCH>12824</REV_AT_EPOCH><BSTAR>.17725E-3</BSTAR><MEAN_MOTION_DOT>.82E-6</MEAN_MOTION_DOT><MEAN_MOTION_DDOT>0</MEAN_MOTION_DDOT></tleParameters></data></segment></body></omm>
<omm id="CCSDS_OMM_VERS" version="2.0">
<header><CREATION_DATE/><ORIGINATOR/></header><body><segment><metadata><OBJECT_NAME>ONEWEB-0391</OBJECT_NAME><OBJECT_ID>2021-132C</OBJECT_ID><CENTER_NAME>EARTH</CENTER_NAME><REF_FRAME>TEME</REF_FRAME><TIME_SYSTEM>UTC</TIME_SYSTEM><MEAN_ELEMENT_THEORY>SGP4</MEAN_ELEMENT_THEORY></metadata><data><meanElements><EPOCH>2024-07-24T08:39:51.683040</EPOCH><MEAN_MOTION>13.17648423</MEAN_MOTION><ECCENTRICITY>.000228</ECCENTRICITY><INCLINATION>87.9200</INCLINATION><RA_OF_ASC_NODE>143.8179</RA_OF_ASC_NODE><ARG_OF_PERICENTER>87.3695</ARG_OF_PERICENTER><MEAN_ANOMALY>272.7697</MEAN_ANOMALY></meanElements><tleParameters><EPHEMERIS_TYPE>0</EPHEMERIS_TYPE><CLASSIFICATION_TYPE>U</CLASSIFICATION_TYPE><NORAD_CAT_ID>50471</NORAD_CAT_ID><ELEMENT_SET_NO>999</ELEMENT_SET_NO><REV_AT_EPOCH>12684</REV_AT_EPOCH><BSTAR>.24629E-3</BSTAR><MEAN_MOTION_DOT>.108E-5</MEAN_MOTION_DOT><MEAN_MOTION_DDOT>0</MEAN_MOTION_DDOT></tleParameters></data></segment></body></omm>
<omm id="CCSDS_OMM_VERS" version="2.0">
<header><CREATION_DATE/><ORIGINATOR/></header><body><segment><metadata><OBJECT_NAME>ONEWEB-0392</OBJECT_NAME><OBJECT_ID>2021-132D</OBJECT_ID><CENTER_NAME>EARTH</CENTER_NAME><REF_FRAME>TEME</REF_FRAME><TIME_SYSTEM>UTC</TIME_SYSTEM><MEAN_ELEMENT_THEORY>SGP4</MEAN_ELEMENT_THEORY></metadata><data><meanElements><EPOCH>2024-07-24T18:28:29.482752</EPOCH><MEAN_MOTION>13.17648863</MEAN_MOTION><ECCENTRICITY>.0002384</ECCENTRICITY><INCLINATION>87.9185</INCLINATION><RA_OF_ASC_NODE>143.7316</RA_OF_ASC_NODE><ARG_OF_PERICENTER>92.6593</ARG_OF_PERICENTER><MEAN_ANOMALY>267.4812</MEAN_ANOMALY></meanElements><tleParameters><EPHEMERIS_TYPE>0</EPHEMERIS_TYPE><CLASSIFICATION_TYPE>U</CLASSIFICATION_TYPE><NORAD_CAT_ID>50472</NORAD_CAT_ID><ELEMENT_SET_NO>999</ELEMENT_SET_NO><REV_AT_EPOCH>12693</REV_AT_EPOCH><BSTAR>.32139E-4</BSTAR><MEAN_MOTION_DOT>.25E-6</MEAN_MOTION_DOT><MEAN_MOTION_DDOT>0</MEAN_MOTION_DDOT></tleParameters></data></segment></body></omm>
<omm id="CCSDS_OMM_VERS" version="2.0">
<header><CREATION_DATE/><ORIGINATOR/></header><body><segment><metadata><OBJECT_NAME>ONEWEB-0393</OBJECT_NAME><OBJECT_ID>2021-132E</OBJECT_ID><CENTER_NAME>EARTH</CENTER_NAME><REF_FRAME>TEME</REF_FRAME><TIME_SYSTEM>UTC</TIME_SYSTEM><MEAN_ELEMENT_THEORY>SGP4</MEAN_ELEMENT_THEORY></metadata><data><meanElements><EPOCH>2024-07-25T04:47:33.653184</EPOCH><MEAN_MOTION>13.17649001</MEAN_MOTION><ECCENTRICITY>.0002151</ECCENTRICITY><INCLINATION>87.9197</INCLINATION><RA_OF_ASC_NODE>143.6268</RA_OF_ASC_NODE><ARG_OF_PERICENTER>85.7838</ARG_OF_PERICENTER><MEAN_ANOMALY>274.3539</MEAN_ANOMALY></meanElements><tleParameters><EPHEMERIS_TYPE>0</EPHEMERIS_TYPE><CLASSIFICATION_TYPE>U</CLASSIFICATION_TYPE><NORAD_CAT_ID>50473</NORAD_CAT_ID><ELEMENT_SET_NO>999</ELEMENT_SET_NO><REV_AT_EPOCH>12827</REV_AT_EPOCH><BSTAR>-.28547E-4</BSTAR><MEAN_MOTION_DOT>.2E-7</MEAN_MOTION_DOT><MEAN_MOTION_DDOT>0</MEAN_MOTION_DDOT></tleParameters></data></segment></body></omm>
<omm id="CCSDS_OMM_VERS" version="2.0">
<header><CREATION_DATE/><ORIGINATOR/></header><body><segment><metadata><OBJECT_NAME>ONEWEB-0394</OBJECT_NAME><OBJECT_ID>2021-132F</OBJECT_ID><CENTER_NAME>EARTH</CENTER_NAME><REF_FRAME>TEME</REF_FRAME><TIME_SYSTEM>UTC</TIME_SYSTEM><MEAN_ELEMENT_THEORY>SGP4</MEAN_ELEMENT_THEORY></metadata><data><meanElements><EPOCH>2024-07-24T17:23:41.020512</EPOCH><MEAN_MOTION>13.18687538</MEAN_MOTION><ECCENTRICITY>.0002054</ECCENTRICITY><INCLINATION>87.9138</INCLINATION><RA_OF_ASC_NODE>113.3112</RA_OF_ASC_NODE><ARG_OF_PERICENTER>78.0226</ARG_OF_PERICENTER><MEAN_ANOMALY>282.1137</MEAN_ANOMALY></meanElements><tleParameters><EPHEMERIS_TYPE>0</EPHEMERIS_TYPE><CLASSIFICATION_TYPE>U</CLASSIFICATION_TYPE><NORAD_CAT_ID>50474</NORAD_CAT_ID><ELEMENT_SET_NO>999</ELEMENT_SET_NO><REV_AT_EPOCH>13033</REV_AT_EPOCH><BSTAR>.6362E-5</BSTAR><MEAN_MOTION_DOT>.15E-6</MEAN_MOTION_DOT><MEAN_MOTION_DDOT>0</MEAN_MOTION_DDOT></tleParameters></data></segment></body></omm>

</ndm>
